HIMAWARI-9
1 41836U 16064A   26191.28447437  .00000000  00000+0  00000+0 0  9995
2 41836   0.0237  41.9433 0002433 138.5658 350.8758  1.00270260 35448
